<?xml version="1.0" encoding="UTF-8"?>
<ndm xmlns:xsi="http://www.w3.org/2001/XMLSchema-instance" xsi:noNamespaceSchemaLocation="https://sanaregistry.org/r/ndmxml_unqualified/ndmxml-2.0.0-master-2.0.xsd">
<omm id="CCSDS_OMM_VERS" version="2.0">
<header><CREATION_DATE/><ORIGINATOR/></header><body><segment><metadata><OBJECT_NAME>KUIPER-00095</OBJECT_NAME><OBJECT_ID>2025-171C</OBJECT_ID><CENTER_NAME>EARTH</CENTER_NAME><REF_FRAME>TEME</REF_FRAME><TIME_SYSTEM>UTC</TIME_SYSTEM><MEAN_ELEMENT_THEORY>SGP4</MEAN_ELEMENT_THEORY></metadata><data><meanElements><EPOCH>2026-01-04T11:41:06.496800</EPOCH><MEAN_MOTION>14.96071523</MEAN_MOTION><ECCENTRICITY>.0004186</ECCENTRICITY><INCLINATION>51.8927</INCLINATION><RA_OF_ASC_NODE>72.2704</RA_OF_ASC_NODE><ARG_OF_PERICENTER>275.7420</ARG_OF_PERICENTER><MEAN_ANOMALY>84.3072</MEAN_ANOMALY></meanElements><tleParameters><EPHEMERIS_TYPE>0</EPHEMERIS_TYPE><CLASSIFICATION_TYPE>U</CLASSIFICATION_TYPE><NORAD_CAT_ID>65134</NORAD_CAT_ID><ELEMENT_SET_NO>999</ELEMENT_SET_NO><REV_AT_EPOCH>2352</REV_AT_EPOCH><BSTAR>.8035E-3</BSTAR><MEAN_MOTION_DOT>.8882E-4</MEAN_MOTION_DOT><MEAN_MOTION_DDOT>0</MEAN_MOTION_DDOT></tleParameters></data></segment></body></omm>
<omm id="CCSDS_OMM_VERS" version="2.0">
<header><CREATION_DATE/><ORIGINATOR/></header><body><segment><metadata><OBJECT_NAME>KUIPER-00096</OBJECT_NAME><OBJECT_ID>2025-171D</OBJECT_ID><CENTER_NAME>EARTH</CENTER_NAME><REF_FRAME>TEME</REF_FRAME><TIME_SYSTEM>UTC</TIME_SYSTEM><MEAN_ELEMENT_THEORY>SGP4</MEAN_ELEMENT_THEORY></metadata><data><meanElements><EPOCH>2026-01-04T10:57:22.634208</EPOCH><MEAN_MOTION>14.80105527</MEAN_MOTION><ECCENTRICITY>.0007466</ECCENTRICITY><INCLINATION>51.9006</INCLINATION><RA_OF_ASC_NODE>82.1239</RA_OF_ASC_NODE><ARG_OF_PERICENTER>308.4721</ARG_OF_PERICENTER><MEAN_ANOMALY>51.5571</MEAN_ANOMALY></meanElements><tleParameters><EPHEMERIS_TYPE>0</EPHEMERIS_TYPE><CLASSIFICATION_TYPE>U</CLASSIFICATION_TYPE><NORAD_CAT_ID>65135</NORAD_CAT_ID><ELEMENT_SET_NO>999</ELEMENT_SET_NO><REV_AT_EPOCH>2338</REV_AT_EPOCH><BSTAR>.10378E-1</BSTAR><MEAN_MOTION_DOT>.80204E-3</MEAN_MOTION_DOT><MEAN_MOTION_DDOT>0</MEAN_MOTION_DDOT></tleParameters></data></segment></body></omm>
<omm id="CCSDS_OMM_VERS" version="2.0">
<header><CREATION_DATE/><ORIGINATOR/></header><body><segment><metadata><OBJECT_NAME>KUIPER-00097</OBJECT_NAME><OBJECT_ID>2025-171E</OBJECT_ID><CENTER_NAME>EARTH</CENTER_NAME><REF_FRAME>TEME</REF_FRAME><TIME_SYSTEM>UTC</TIME_SYSTEM><MEAN_ELEMENT_THEORY>SGP4</MEAN_ELEMENT_THEORY></metadata><data><meanElements><EPOCH>2026-01-04T12:30:59.666688</EPOCH><MEAN_MOTION>14.79866644</MEAN_MOTION><ECCENTRICITY>.0007397</ECCENTRICITY><INCLINATION>51.9032</INCLINATION><RA_OF_ASC_NODE>84.4569</RA_OF_ASC_NODE><ARG_OF_PERICENTER>307.6523</ARG_OF_PERICENTER><MEAN_ANOMALY>52.3768</MEAN_ANOMALY></meanElements><tleParameters><EPHEMERIS_TYPE>0</EPHEMERIS_TYPE><CLASSIFICATION_TYPE>U</CLASSIFICATION_TYPE><NORAD_CAT_ID>65136</NORAD_CAT_ID><ELEMENT_SET_NO>999</ELEMENT_SET_NO><REV_AT_EPOCH>2334</REV_AT_EPOCH><BSTAR>.764E-2</BSTAR><MEAN_MOTION_DOT>.58458E-3</MEAN_MOTION_DOT><MEAN_MOTION_DDOT>0</MEAN_MOTION_DDOT></tleParameters></data></segment></body></omm>
<omm id="CCSDS_OMM_VERS" version="2.0">
<header><CREATION_DATE/><ORIGINATOR/></header><body><segment><metadata><OBJECT_NAME>KUIPER-00098</OBJECT_NAME><OBJECT_ID>2025-171F</OBJECT_ID><CENTER_NAME>EARTH</CENTER_NAME><REF_FRAME>TEME</REF_FRAME><TIME_SYSTEM>UTC</TIME_SYSTEM><MEAN_ELEMENT_THEORY>SGP4</MEAN_ELEMENT_THEORY></metadata><data><meanElements><EPOCH>2026-01-04T12:26:38.307552</EPOCH><MEAN_MOTION>14.79913210</MEAN_MOTION><ECCENTRICITY>.0006484</ECCENTRICITY><INCLINATION>51.9013</INCLINATION><RA_OF_ASC_NODE>86.8514</RA_OF_ASC_NODE><ARG_OF_PERICENTER>286.7519</ARG_OF_PERICENTER><MEAN_ANOMALY>73.2732</MEAN_ANOMALY></meanElements><tleParameters><EPHEMERIS_TYPE>0</EPHEMERIS_TYPE><CLASSIFICATION_TYPE>U</CLASSIFICATION_TYPE><NORAD_CAT_ID>65137</NORAD_CAT_ID><ELEMENT_SET_NO>999</ELEMENT_SET_NO><REV_AT_EPOCH>2266</REV_AT_EPOCH><BSTAR>.30606E-3</BSTAR><MEAN_MOTION_DOT>.2111E-4</MEAN_MOTION_DOT><MEAN_MOTION_DDOT>0</MEAN_MOTION_DDOT></tleParameters></data></segment></body></omm>
<omm id="CCSDS_OMM_VERS" version="2.0">
<header><CREATION_DATE/><ORIGINATOR/></header><body><segment><metadata><OBJECT_NAME>KUIPER-00099</OBJECT_NAME><OBJECT_ID>2025-171G</OBJECT_ID><CENTER_NAME>EARTH</CENTER_NAME><REF_FRAME>TEME</REF_FRAME><TIME_SYSTEM>UTC</TIME_SYSTEM><MEAN_ELEMENT_THEORY>SGP4</MEAN_ELEMENT_THEORY></metadata><data><meanElements><EPOCH>2026-01-04T11:53:32.756064</EPOCH><MEAN_MOTION>14.79958251</MEAN_MOTION><ECCENTRICITY>.0000704</ECCENTRICITY><INCLINATION>51.9037</INCLINATION><RA_OF_ASC_NODE>76.9205</RA_OF_ASC_NODE><ARG_OF_PERICENTER>80.1102</ARG_OF_PERICENTER><MEAN_ANOMALY>279.9940</MEAN_ANOMALY></meanElements><tleParameters><EPHEMERIS_TYPE>0</EPHEMERIS_TYPE><CLASSIFICATION_TYPE>U</CLASSIFICATION_TYPE><NORAD_CAT_ID>65138</NORAD_CAT_ID><ELEMENT_SET_NO>999</ELEMENT_SET_NO><REV_AT_EPOCH>2345</REV_AT_EPOCH><BSTAR>.53779E-3</BSTAR><MEAN_MOTION_DOT>.3883E-4</MEAN_MOTION_DOT><MEAN_MOTION_DDOT>0</MEAN_MOTION_DDOT></tleParameters></data></segment></body></omm>
<omm id="CCSDS_OMM_VERS" version="2.0">
<header><CREATION_DATE/><ORIGINATOR/></header><body><segment><metadata><OBJECT_NAME>KUIPER-00100</OBJECT_NAME><OBJECT_ID>2025-171H</OBJECT_ID><CENTER_NAME>EARTH</CENTER_NAME><REF_FRAME>TEME</REF_FRAME><TIME_SYSTEM>UTC</TIME_SYSTEM><MEAN_ELEMENT_THEORY>SGP4</MEAN_ELEMENT_THEORY></metadata><data><meanElements><EPOCH>2026-01-02T15:12:10.237248</EPOCH><MEAN_MOTION>14.78772606</MEAN_MOTION><ECCENTRICITY>.00004736</ECCENTRICITY><INCLINATION>51.9016</INCLINATION><RA_OF_ASC_NODE>82.5649</RA_OF_ASC_NODE><ARG_OF_PERICENTER>115.2963</ARG_OF_PERICENTER><MEAN_ANOMALY>244.8048</MEAN_ANOMALY></meanElements><tleParameters><EPHEMERIS_TYPE>0</EPHEMERIS_TYPE><CLASSIFICATION_TYPE>U</CLASSIFICATION_TYPE><NORAD_CAT_ID>65139</NORAD_CAT_ID><ELEMENT_SET_NO>999</ELEMENT_SET_NO><REV_AT_EPOCH>2321</REV_AT_EPOCH><BSTAR>.92612133E-3</BSTAR><MEAN_MOTION_DOT>.6656E-4</MEAN_MOTION_DOT><MEAN_MOTION_DDOT>0</MEAN_MOTION_DDOT></tleParameters></data></segment></body></omm>
<omm id="CCSDS_OMM_VERS" version="2.0">
<header><CREATION_DATE/><ORIGINATOR/></header><body><segment><metadata><OBJECT_NAME>KUIPER-00102</OBJECT_NAME><OBJECT_ID>2025-171J</OBJECT_ID><CENTER_NAME>EARTH</CENTER_NAME><REF_FRAME>TEME</REF_FRAME><TIME_SYSTEM>UTC</TIME_SYSTEM><MEAN_ELEMENT_THEORY>SGP4</MEAN_ELEMENT_THEORY></metadata><data><meanElements><EPOCH>2026-01-04T09:27:43.125696</EPOCH><MEAN_MOTION>14.79976860</MEAN_MOTION><ECCENTRICITY>.0000565</ECCENTRICITY><INCLINATION>51.8988</INCLINATION><RA_OF_ASC_NODE>77.4010</RA_OF_ASC_NODE><ARG_OF_PERICENTER>77.2985</ARG_OF_PERICENTER><MEAN_ANOMALY>282.8041</MEAN_ANOMALY></meanElements><tleParameters><EPHEMERIS_TYPE>0</EPHEMERIS_TYPE><CLASSIFICATION_TYPE>U</CLASSIFICATION_TYPE><NORAD_CAT_ID>65140</NORAD_CAT_ID><ELEMENT_SET_NO>999</ELEMENT_SET_NO><REV_AT_EPOCH>2343</REV_AT_EPOCH><BSTAR>.88191E-3</BSTAR><MEAN_MOTION_DOT>.6515E-4</MEAN_MOTION_DOT><MEAN_MOTION_DDOT>0</MEAN_MOTION_DDOT></tleParameters></data></segment></body></omm>
<omm id="CCSDS_OMM_VERS" version="2.0">
<header><CREATION_DATE/><ORIGINATOR/></header><body><segment><metadata><OBJECT_NAME>KUIPER-00103</OBJECT_NAME><OBJECT_ID>2025-171K</OBJECT_ID><CENTER_NAME>EARTH</CENTER_NAME><REF_FRAME>TEME</REF_FRAME><TIME_SYSTEM>UTC</TIME_SYSTEM><MEAN_ELEMENT_THEORY>SGP4</MEAN_ELEMENT_THEORY></metadata><data><meanElements><EPOCH>2026-01-04T11:26:27.742272</EPOCH><MEAN_MOTION>14.79906698</MEAN_MOTION><ECCENTRICITY>.0005443</ECCENTRICITY><INCLINATION>51.8995</INCLINATION><RA_OF_ASC_NODE>94.5257</RA_OF_ASC_NODE><ARG_OF_PERICENTER>277.3035</ARG_OF_PERICENTER><MEAN_ANOMALY>82.7309</MEAN_ANOMALY></meanElements><tleParameters><EPHEMERIS_TYPE>0</EPHEMERIS_TYPE><CLASSIFICATION_TYPE>U</CLASSIFICATION_TYPE><NORAD_CAT_ID>65141</NORAD_CAT_ID><ELEMENT_SET_NO>999</ELEMENT_SET_NO><REV_AT_EPOCH>2320</REV_AT_EPOCH><BSTAR>-.76269E-3</BSTAR><MEAN_MOTION_DOT>-.6029E-4</MEAN_MOTION_DOT><MEAN_MOTION_DDOT>0</MEAN_MOTION_DDOT></tleParameters></data></segment></body></omm>

</ndm>
