KUIPER-00095            
1 65134U 25171C   26004.48688075  .00008882  00000+0  80350-3 0  9997
2 65134  51.8927  72.2704 0004186 275.7420  84.3072 14.96071523 23525
KUIPER-00096            
1 65135U 25171D   26004.45651197  .00080204  00000+0  10378-1 0  9999
2 65135  51.9006  82.1239 0007466 308.4721  51.5571 14.80105527 23389
KUIPER-00097            
1 65136U 25171E   26004.52152392  .00058458  00000+0  76400-2 0  9996
2 65136  51.9032  84.4569 0007397 307.6523  52.3768 14.79866644 23349
KUIPER-00098            
1 65137U 25171F   26004.51849893  .00002111  00000+0  30606-3 0  9999
2 65137  51.9013  86.8514 0006484 286.7519  73.2732 14.79913210 22662
KUIPER-00099            
1 65138U 25171G   26004.49551801  .00003883  00000+0  53779-3 0  9999
2 65138  51.9037  76.9205 0000704  80.1102 279.9940 14.79958251 23457
KUIPER-00100            
1 65139U 25171H   26002.63345182  .00006656  00000+0  92612-3 0  9997
2 65139  51.9016  82.5649 0000473 115.2963 244.8048 14.78772606 23219
KUIPER-00102            
1 65140U 25171J   26004.39424914  .00006515  00000+0  88191-3 0  9996
2 65140  51.8988  77.4010 0000565  77.2985 282.8041 14.79976860 23434
KUIPER-00103            
1 65141U 25171K   26004.47670998 -.00006029  00000+0 -76269-3 0  9996
2 65141  51.8995  94.5257 0005443 277.3035  82.7309 14.79906698 23206
